{
  "type": "FeatureCollection",
  "features": [
    {
      "type": "Feature",
      "properties": {
        "norad_id": 35108,
        "name": "FENGYUN 1C DEB",
        "group": "fengyun-1c-debris",
        "lat": 38.42263166092991,
        "lon": 164.6803469900278,
        "alt_km": 826.4169178589736,
        "timestamp": "2025-12-07T20:38:14.350786+00:00",
        "meta_object_name": "FENGYUN 1C DEB",
        "meta_object_id": "1999-025DKL",
        "meta_epoch": "2025-11-17T16:56:54.235392",
        "meta_mean_motion": 14.06875481,
        "meta_eccentricity": 0.01346692,
        "meta_inclination": 98.7997,
        "meta_ra_of_asc_node": 318.0085,
        "meta_arg_of_pericenter": 131.4741,
        "meta_mean_anomaly": 229.8083,
        "meta_ephemeris_type": 0,
        "meta_classification_type": "U",
        "meta_norad_cat_id": 35108,
        "meta_element_set_no": 999,
        "meta_rev_at_epoch": 88886,
        "meta_bstar": 0.00053903391,
        "meta_mean_motion_dot": 9.33e-06,
        "meta_mean_motion_ddot": 0,
        "tle_line1": "1 35108U 99025DKL 25321.70618328  .00000933  00000+0  53903-3 0  9997",
        "tle_line2": "2 35108  98.7997 318.0085 0134669 131.4741 229.8083 14.06875481888867"
      },
      "geometry": {
        "type": "Point",
        "coordinates": [
          164.6803469900278,
          38.42263166092991
        ]
      }
    },
    {
      "type": "Feature",
      "properties": {
        "norad_id": 35109,
        "name": "FENGYUN 1C DEB",
        "group": "fengyun-1c-debris",
        "lat": 50.406109087939996,
        "lon": -39.29970494652011,
        "alt_km": 707.268571785934,
        "timestamp": "2025-12-07T20:38:14.350795+00:00",
        "meta_object_name": "FENGYUN 1C DEB",
        "meta_object_id": "1999-025DKM",
        "meta_epoch": "2025-12-06T22:25:58.905120",
        "meta_mean_motion": 14.20861666,
        "meta_eccentricity": 0.01536248,
        "meta_inclination": 98.6154,
        "meta_ra_of_asc_node": 330.3601,
        "meta_arg_of_pericenter": 51.0895,
        "meta_mean_anomaly": 310.3866,
        "meta_ephemeris_type": 0,
        "meta_classification_type": "U",
        "meta_norad_cat_id": 35109,
        "meta_element_set_no": 999,
        "meta_rev_at_epoch": 64077,
        "meta_bstar": 0.0004924619,
        "meta_mean_motion_dot": 1.157e-05,
        "meta_mean_motion_ddot": 0,
        "tle_line1": "1 35109U 99025DKM 25340.93470955  .00001157  00000+0  49246-3 0  9990",
        "tle_line2": "2 35109  98.6154 330.3601 0153624  51.0895 310.3866 14.20861666640779"
      },
      "geometry": {
        "type": "Point",
        "coordinates": [
          -39.29970494652011,
          50.406109087939996
        ]
      }
    },
    {
      "type": "Feature",
      "properties": {
        "norad_id": 35111,
        "name": "FENGYUN 1C DEB",
        "group": "fengyun-1c-debris",
        "lat": 74.0858751900634,
        "lon": 24.435664304961463,
        "alt_km": 863.3115601307345,
        "timestamp": "2025-12-07T20:38:14.350805+00:00",
        "meta_object_name": "FENGYUN 1C DEB",
        "meta_object_id": "1999-025DKP",
        "meta_epoch": "2025-12-05T12:06:31.003200",
        "meta_mean_motion": 14.10949301,
        "meta_eccentricity": 0.00215264,
        "meta_inclination": 99.4667,
        "meta_ra_of_asc_node": 57.7715,
        "meta_arg_of_pericenter": 240.7618,
        "meta_mean_anomaly": 119.1399,
        "meta_ephemeris_type": 0,
        "meta_classification_type": "U",
        "meta_norad_cat_id": 35111,
        "meta_element_set_no": 999,
        "meta_rev_at_epoch": 64042,
        "meta_bstar": 0.00080865112,
        "meta_mean_motion_dot": 1.406e-05,
        "meta_mean_motion_ddot": 0,
        "tle_line1": "1 35111U 99025DKP 25339.50452550  .00001406  00000+0  80865-3 0  9994",
        "tle_line2": "2 35111  99.4667  57.7715 0021526 240.7618 119.1399 14.10949301640421"
      },
      "geometry": {
        "type": "Point",
        "coordinates": [
          24.435664304961463,
          74.0858751900634
        ]
      }
    },
    {
      "type": "Feature",
      "properties": {
        "norad_id": 35116,
        "name": "FENGYUN 1C DEB",
        "group": "fengyun-1c-debris",
        "lat": 72.5826847596046,
        "lon": -1.1798081984962743,
        "alt_km": 759.9156203120947,
        "timestamp": "2025-12-07T20:38:14.350815+00:00",
        "meta_object_name": "FENGYUN 1C DEB",
        "meta_object_id": "1999-025DKU",
        "meta_epoch": "2025-12-06T13:57:31.845312",
        "meta_mean_motion": 14.25033527,
        "meta_eccentricity": 0.00589098,
        "meta_inclination": 98.6595,
        "meta_ra_of_asc_node": 26.6227,
        "meta_arg_of_pericenter": 66.5882,
        "meta_mean_anomaly": 294.1477,
        "meta_ephemeris_type": 0,
        "meta_classification_type": "U",
        "meta_norad_cat_id": 35116,
        "meta_element_set_no": 999,
        "meta_rev_at_epoch": 59872,
        "meta_bstar": 0.0018081159,
        "meta_mean_motion_dot": 4.271e-05,
        "meta_mean_motion_ddot": 0,
        "tle_line1": "1 35116U 99025DKU 25340.58161858  .00004271  00000+0  18081-2 0  9990",
        "tle_line2": "2 35116  98.6595  26.6227 0058909  66.5882 294.1477 14.25033527598728"
      },
      "geometry": {
        "type": "Point",
        "coordinates": [
          -1.1798081984962743,
          72.5826847596046
        ]
      }
    },
    {
      "type": "Feature",
      "properties": {
        "norad_id": 35121,
        "name": "FENGYUN 1C DEB",
        "group": "fengyun-1c-debris",
        "lat": -70.67189582591509,
        "lon": 0.917688680945269,
        "alt_km": 974.3452646960077,
        "timestamp": "2025-12-07T20:38:14.350825+00:00",
        "meta_object_name": "FENGYUN 1C DEB",
        "meta_object_id": "1999-025DKZ",
        "meta_epoch": "2025-11-23T20:23:41.984736",
        "meta_mean_motion": 14.04733583,
        "meta_eccentricity": 0.0157971,
        "meta_inclination": 98.3025,
        "meta_ra_of_asc_node": 192.694,
        "meta_arg_of_pericenter": 150.2058,
        "meta_mean_anomaly": 210.8223,
        "meta_ephemeris_type": 0,
        "meta_classification_type": "U",
        "meta_norad_cat_id": 35121,
        "meta_element_set_no": 999,
        "meta_rev_at_epoch": 60826,
        "meta_bstar": 0.00039097454,
        "meta_mean_motion_dot": 6.63e-06,
        "meta_mean_motion_ddot": 0,
        "tle_line1": "1 35121U 99025DKZ 25327.84979149  .00000663  00000+0  39097-3 0  9992",
        "tle_line2": "2 35121  98.3025 192.6940 0157971 150.2058 210.8223 14.04733583608261"
      },
      "geometry": {
        "type": "Point",
        "coordinates": [
          0.917688680945269,
          -70.67189582591509
        ]
      }
    },
    {
      "type": "Feature",
      "properties": {
        "norad_id": 35122,
        "name": "FENGYUN 1C DEB",
        "group": "fengyun-1c-debris",
        "lat": 7.626409812563759,
        "lon": -0.7535069782705485,
        "alt_km": 864.5632073357392,
        "timestamp": "2025-12-07T20:38:14.350834+00:00",
        "meta_object_name": "FENGYUN 1C DEB",
        "meta_object_id": "1999-025DLA",
        "meta_epoch": "2025-12-07T07:00:56.566368",
        "meta_mean_motion": 14.14115247,
        "meta_eccentricity": 0.00250927,
        "meta_inclination": 98.6724,
        "meta_ra_of_asc_node": 359.8667,
        "meta_arg_of_pericenter": 172.991,
        "meta_mean_anomaly": 187.1619,
        "meta_ephemeris_type": 0,
        "meta_classification_type": "U",
        "meta_norad_cat_id": 35122,
        "meta_element_set_no": 999,
        "meta_rev_at_epoch": 63790,
        "meta_bstar": 0.00048988418,
        "meta_mean_motion_dot": 8.93e-06,
        "meta_mean_motion_ddot": 0,
        "tle_line1": "1 35122U 99025DLA 25341.29232137  .00000893  00000+0  48988-3 0  9991",
        "tle_line2": "2 35122  98.6724 359.8667 0025092 172.9910 187.1619 14.14115247637900"
      },
      "geometry": {
        "type": "Point",
        "coordinates": [
          -0.7535069782705485,
          7.626409812563759
        ]
      }
    },
    {
      "type": "Feature",
      "properties": {
        "norad_id": 35123,
        "name": "FENGYUN 1C DEB",
        "group": "fengyun-1c-debris",
        "lat": -14.819039293204089,
        "lon": 166.79328279308626,
        "alt_km": 824.7726451416111,
        "timestamp": "2025-12-07T20:38:14.350844+00:00",
        "meta_object_name": "FENGYUN 1C DEB",
        "meta_object_id": "1999-025DLB",
        "meta_epoch": "2025-12-05T23:10:58.256256",
        "meta_mean_motion": 14.2418948,
        "meta_eccentricity": 0.0049671,
        "meta_inclination": 99.1223,
        "meta_ra_of_asc_node": 162.3921,
        "meta_arg_of_pericenter": 95.3297,
        "meta_mean_anomaly": 265.355,
        "meta_ephemeris_type": 0,
        "meta_classification_type": "U",
        "meta_norad_cat_id": 35123,
        "meta_element_set_no": 999,
        "meta_rev_at_epoch": 60977,
        "meta_bstar": 0.00090983273,
        "meta_mean_motion_dot": 2.077e-05,
        "meta_mean_motion_ddot": 0,
        "tle_line1": "1 35123U 99025DLB 25339.96595204  .00002077  00000+0  90983-3 0  9998",
        "tle_line2": "2 35123  99.1223 162.3921 0049671  95.3297 265.3550 14.24189480609774"
      },
      "geometry": {
        "type": "Point",
        "coordinates": [
          166.79328279308626,
          -14.819039293204089
        ]
      }
    }
  ]
}